NORAD_CAT_ID,OBJECT_NAME,OBJECT_TYPE,EPOCH,MEAN_MOTION,ECCENTRICITY,INCLINATION,RA_OF_ASC_NODE,ARG_OF_PERICENTER,MEAN_ANOMALY,BSTAR,MEAN_MOTION_DOT,MEAN_MOTION_DDOT,TLE_LINE0,TLE_LINE1,TLE_LINE2,SEMIMAJOR_AXIS,PERIOD,APOGEE,PERIGEE,DECAYED
53977.0,STARLINK-5094,PAYLOAD,2022-10-11 18:00:00,15.80981539,0.0001228,53.2174,63.0445,47.3499,2.3461,-0.0068025,-0.01200027,0.0,0 STARLINK-5094,1 53977U 22125P   22284.75001157 -.01200027  00000-0 -68025-2 0  9994,2 53977  53.2174  63.0445 0001228  47.3499   2.3461 15.80981539  1305,6705.801,91.083,328.4890000000001,326.842,0.0
53977.0,STARLINK-5094,PAYLOAD,2022-10-12 12:00:00,15.79029335,0.0001353,53.2178,59.2941,35.9819,322.1698,-0.0074464,-0.0120032,0.0,0 STARLINK-5094,1 53977U 22125P   22285.50001157 -.01200320  00000-0 -74464-2 0  9998,2 53977  53.2178  59.2941 0001353  35.9819 322.1698 15.79029335  1417,6711.3269999999975,91.195,334.1,332.284,0.0
53977.0,STARLINK-5094,PAYLOAD,2022-10-12 14:00:01,15.78808227,0.0001585999999999,53.2175,58.8789,36.4714,75.6282,-0.0074747,-0.01193728,0.0,0 STARLINK-5094,1 53977U 22125P   22285.58334491 -.01193728  00000-0 -74747-2 0  9993,2 53977  53.2175  58.8789 0001586  36.4714  75.6282 15.78808227  1308,6711.953,91.208,334.8830000000001,332.754,0.0
53977.0,STARLINK-5094,PAYLOAD,2022-10-12 22:00:00,15.77942848,0.0001545,53.217,57.2171,39.4717,167.7623,-0.0078014,-0.01197343,0.0,0 STARLINK-5094,1 53977U 22125P   22285.91667824 -.01197343  00000-0 -78014-2 0  9997,2 53977  53.2170  57.2171 0001545  39.4717 167.7623 15.77942848  1301,6714.406999999997,91.258,337.309,335.235,0.0
53977.0,STARLINK-5094,PAYLOAD,2022-10-13 04:00:00,15.77288596,0.0001471,53.2174,55.9702,41.7828,146.1204,-0.0079916,-0.01191528,0.0,0 STARLINK-5094,1 53977U 22125P   22286.16667824 -.01191528  00000-0 -79916-2 0  9996,2 53977  53.2174  55.9702 0001471  41.7828 146.1204 15.77288596  1520,6716.264,91.296,339.117,337.141,0.0
53977.0,STARLINK-5094,PAYLOAD,2022-10-13 14:00:01,15.76206619,0.0001740999999999,53.2174,53.8987,26.2758,8.1001,-0.0084217999999999,-0.01195907,0.0,0 STARLINK-5094,1 53977U 22125P   22286.58334491 -.01195907  00000-0 -84218-2 0  9999,2 53977  53.2174  53.8987 0001741  26.2758   8.1001 15.76206619  1305,6719.337,91.359,342.372,340.032,0.0
53977.0,STARLINK-5094,PAYLOAD,2022-10-13 16:00:00,15.75988219,0.0001879,53.2173,53.485,30.8883,116.5872,-0.0084834,-0.01193406,0.0,0 STARLINK-5094,1 53977U 22125P   22286.66667824 -.01193406  00000-0 -84834-2 0  9993,2 53977  53.2173  53.4850 0001879  30.8883 116.5872 15.75988219  1606,6719.958000000001,91.371,343.085,340.56,0.0
53977.0,STARLINK-5094,PAYLOAD,2022-10-13 22:00:00,15.75338047,0.0001875,53.2173,52.2431,28.2199,98.1626,-0.0087415,-0.01194639,0.0,0 STARLINK-5094,1 53977U 22125P   22286.91667824 -.01194639  00000-0 -87415-2 0  9998,2 53977  53.2173  52.2431 0001875  28.2199  98.1626 15.75338047  1302,6721.806,91.409,344.932,342.411,0.0
53977.0,STARLINK-5094,PAYLOAD,2022-10-14 12:00:00,15.73673293,0.0001808,53.2177,49.3498,42.2275,152.6743,-0.004301,-0.00576342,0.0,0 STARLINK-5094,1 53977U 22125P   22287.50001157 -.00576342  00000-0 -43010-2 0  9992,2 53977  53.2177  49.3498 0001808  42.2275 152.6743 15.73673293  1739,6726.545999999999,91.506,349.62699999999984,347.195,0.0
53977.0,STARLINK-5094,PAYLOAD,2022-10-14 14:00:01,15.73498501,0.0001768,53.2175,48.9378,46.3707,260.9069,-0.0029987,-0.00406976,0.0,0 STARLINK-5094,1 53977U 22125P   22287.58334491 -.00406976  00000-0 -29987-2 0  9992,2 53977  53.2175  48.9378 0001768  46.3707 260.9069 15.73498501  1303,6727.044,91.516,350.099,347.72,0.0
53977.0,STARLINK-5094,PAYLOAD,2022-10-14 18:00:00,15.73219589,0.0001728,53.2176,48.1134,40.534,131.3744,-0.00018032,-0.00025872,0.0,0 STARLINK-5094,1 53977U 22125P   22287.75001157 -.00025872  00000-0 -18032-3 0  9993,2 53977  53.2176  48.1134 0001728  40.5340 131.3744 15.73219589  1309,6727.839,91.532,350.867,348.542,0.0
53977.0,STARLINK-5094,PAYLOAD,2022-10-15 04:00:00,15.73201268,0.0008391,53.2173,46.0492,268.7379,104.3476,3.8624e-05,4.803e-05,0.0,0 STARLINK-5094,1 53977U 22125P   22288.16667824  .00004803  00000-0  38624-4 0  9997,2 53977  53.2173  46.0492 0008391 268.7379 104.3476 15.73201268  1834,6727.892,91.533,355.402,344.111,0.0
53977.0,STARLINK-5094,PAYLOAD,2022-10-15 10:00:00,15.73280368,0.0001834,53.2201,44.8193,2.4104,347.2895,-9.7043e-05,-0.00014265,0.0,0 STARLINK-5094,1 53977U 22125P   22288.41667824 -.00014265  00000-0 -97043-4 0  9990,2 53977  53.2201  44.8193 0001834   2.4104 347.2895 15.73280368  1879,6727.666,91.529,350.765,348.297,0.0
53977.0,STARLINK-5094,PAYLOAD,2022-10-15 14:00:01,15.73275996,0.0002072,53.2199,43.9958,6.7831,207.4277,-0.00011944,-0.00017406,0.0,0 STARLINK-5094,1 53977U 22125P   22288.58334491 -.00017406  00000-0 -11944-3 0  9994,2 53977  53.2199  43.9958 0002072   6.7831 207.4277 15.73275996  1303,6727.679,91.529,350.93699999999984,348.15,0.0
53977.0,STARLINK-5094,PAYLOAD,2022-10-15 22:00:01,15.73324767,0.0002254999999999,53.2199,42.346,13.3181,289.9508,-0.001205,-0.00167332,0.0,0 STARLINK-5094,1 53977U 22125P   22288.91668981 -.00167332  00000-0 -12050-2 0  9997,2 53977  53.2199  42.3460 0002255  13.3181 289.9508 15.73324767  1302,6727.5390000000025,91.526,350.922,347.88699999999994,0.0
53977.0,STARLINK-5094,PAYLOAD,2022-10-16 04:00:00,15.7316608,0.0002168,53.2201,41.1075,20.7324,259.2095,-0.00033796,-0.00047719,0.0,0 STARLINK-5094,1 53977U 22125P   22289.16667824 -.00047719  00000-0 -33796-3 0  9997,2 53977  53.2201  41.1075 0002168  20.7324 259.2095 15.73166080  1997,6727.9919999999975,91.535,351.316,348.398,0.0
53977.0,STARLINK-5094,PAYLOAD,2022-10-16 12:00:00,15.7307557,0.0002349,53.2199,39.4595,20.9534,347.8418,0.0013912,0.0019825,0.0,0 STARLINK-5094,1 53977U 22125P   22289.50001157  .00198250  00000-0  13912-2 0  9998,2 53977  53.2199  39.4595 0002349  20.9534 347.8418 15.73075570  2049,6728.25,91.54,351.695,348.534,0.0
53977.0,STARLINK-5094,PAYLOAD,2022-10-16 14:00:01,15.73138122,0.0002431,53.2197,39.0478,20.5042,100.4855,0.00076645,0.00108059,0.0,0 STARLINK-5094,1 53977U 22125P   22289.58334491  .00108059  00000-0  76645-3 0  9997,2 53977  53.2197  39.0478 0002431  20.5042 100.4855 15.73138122  1304,6728.071999999999,91.537,351.57199999999995,348.301,0.0
53977.0,STARLINK-5094,PAYLOAD,2022-10-16 20:00:01,15.73213136,0.0002532,53.2189,37.8099,17.0827,80.5747,-9.4768e-05,-0.0001391,0.0,0 STARLINK-5094,1 53977U 22125P   22289.83334491 -.00013910  00000-0 -94768-4 0  9995,2 53977  53.2189  37.8099 0002532  17.0827  80.5747 15.73213136  2100,6727.858,91.532,351.426,348.019,0.0
53977.0,STARLINK-5094,PAYLOAD,2022-10-16 22:00:00,15.7320058,0.0002483,53.2192,37.3981,18.9007,190.9914,5.8582e-05,7.608e-05,0.0,0 STARLINK-5094,1 53977U 22125P   22289.91667824  .00007608  00000-0  58582-4 0  9992,2 53977  53.2192  37.3981 0002483  18.9007 190.9914 15.73200580  1306,6727.894,91.533,351.42900000000014,348.088,0.0
53977.0,STARLINK-5094,PAYLOAD,2022-10-17 04:00:00,15.73178331,0.0002269,53.219,36.1587,21.56900000000001,165.0272,0.00088277,0.0012502,0.0,0 STARLINK-5094,1 53977U 22125P   22290.16667824  .00125020  00000-0  88277-3 0  9993,2 53977  53.2190  36.1587 0002269  21.5690 165.0272 15.73178331  2155,6727.956999999999,91.534,351.349,348.295,0.0
53977.0,STARLINK-5094,PAYLOAD,2022-10-17 12:00:00,15.73201474,0.000239,53.2173,34.5036,24.5637,251.0608,3.4302e-05,4.195e-05,0.0,0 STARLINK-5094,1 53977U 22125P   22290.50001157  .00004195  00000-0  34302-4 0  9992,2 53977  53.2173  34.5036 0002390  24.5637 251.0608 15.73201474  2206,6727.891,91.533,351.36400000000015,348.148,0.0
53977.0,STARLINK-5094,PAYLOAD,2022-10-17 14:00:01,15.73205723,0.0002447,53.2173,34.0914,24.3488,3.5072,-1.929e-05,-3.329e-05,0.0,0 STARLINK-5094,1 53977U 22125P   22290.58334491 -.00003329  00000-0 -19290-4 0  9999,2 53977  53.2173  34.0914 0002447  24.3488   3.5072 15.73205723  1307,6727.879,91.533,351.39,348.098,0.0
53977.0,STARLINK-5094,PAYLOAD,2022-10-17 22:00:00,15.73238388,0.0002583,53.2198,32.4495,19.3548,97.4585,-0.00060903,-0.00085389,0.0,0 STARLINK-5094,1 53977U 22125P   22290.91667824 -.00085389  00000-0 -60903-3 0  9997,2 53977  53.2198  32.4495 0002583  19.3548  97.4585 15.73238388  1306,6727.786,91.531,351.389,347.913,0.0
53977.0,STARLINK-5094,PAYLOAD,2022-10-18 12:00:00,15.73160772,0.0002771999999999,53.2198,29.5633,23.0401,159.3885,0.0002961,0.00041073,0.0,0 STARLINK-5094,1 53977U 22125P   22291.50001157  .00041073  00000-0  29610-3 0  9994,2 53977  53.2198  29.5633 0002772  23.0401 159.3885 15.73160772  2366,6728.007,91.535,351.737,348.00699999999995,0.0
53977.0,STARLINK-5094,PAYLOAD,2022-10-18 14:00:01,15.73158795,0.0002863,53.2198,29.1514,24.0459,270.6023,0.00040172,0.00056043,0.0,0 STARLINK-5094,1 53977U 22125P   22291.58334491  .00056043  00000-0  40172-3 0  9991,2 53977  53.2198  29.1514 0002863  24.0459 270.6023 15.73158795  1301,6728.013000000001,91.536,351.80400000000014,347.951,0.0
53977.0,STARLINK-5094,PAYLOAD,2022-10-18 22:00:00,15.73204217,0.0002508999999999,53.2172,27.4923,16.1785,7.4158,1.3625e-06,-4.31e-06,0.0,0 STARLINK-5094,1 53977U 22125P   22291.91667824 -.00000431  00000-0  13625-5 0  9993,2 53977  53.2172  27.4923 0002509  16.1785   7.4158 15.73204217  1305,6727.8830000000025,91.533,351.436,348.06,0.0
53977.0,STARLINK-5094,PAYLOAD,2022-10-19 12:00:00,15.73180377,0.0002862,53.219,24.6154,24.1596,65.0488,1.9955e-05,2.177e-05,0.0,0 STARLINK-5094,1 53977U 22125P   22292.50001157  .00002177  00000-0  19955-4 0  9999,2 53977  53.2190  24.6154 0002862  24.1596  65.0488 15.73180377  2522,6727.951,91.534,351.742,347.891,0.0
53977.0,STARLINK-5094,PAYLOAD,2022-10-19 14:00:01,15.73165009,0.0002984,53.219,24.2033,24.4636,176.9832,0.00048234,0.00067527,0.0,0 STARLINK-5094,1 53977U 22125P   22292.58334491  .00067527  00000-0  48234-3 0  9998,2 53977  53.2190  24.2033 0002984  24.4636 176.9832 15.73165009  1302,6727.995,91.535,351.86800000000005,347.852,0.0
